{"type": "FeatureCollection", "features": [ {"type": "Feature", "properties": {"norad_id": 42987, "name": "SKYSAT-C11", "group": "resource", "lat": -36.11803010429567, "lon": -51.236088025126705, "alt_km": 429.8604718723709, "timestamp": "2025-12-22T11:33:20.086956+00:00", "meta": {"OBJECT_NAME": "SKYSAT-C11", "OBJECT_ID": "2017-068A", "EPOCH": "2025-12-21T22:12:39.917664", "MEAN_MOTION": 15.4781306, "ECCENTRICITY": 0.0001163, "INCLINATION": 97.4149, "RA_OF_ASC_NODE": 133.647, "ARG_OF_PERICENTER": 98.4574, "MEAN_ANOMALY": 261.6807, "EPHEMERIS_TYPE": 0, "CLASSIFICATION_TYPE": "U", "NORAD_CAT_ID": 42987, "ELEMENT_SET_NO": 999, "REV_AT_EPOCH": 45573, "BSTAR": 0.00044998, "MEAN_MOTION_DOT": 0.00023307, "MEAN_MOTION_DDOT": 0}, "tle": {"line1": "1 42987U 17068A   25355.92546201  .00023307  00000+0  44998-3 0  9992", "line2": "2 42987  97.4149 133.6470 0001163  98.4574 261.6807 15.47813060455737"}}, "geometry": {"type": "Point", "coordinates": [-51.236088025126705, -36.11803010429567]}}, {"type": "Feature", "properties": {"norad_id": 42988, "name": "SKYSAT-C10", "group": "resource", "lat": 64.24395993526709, "lon": -36.95358845251839, "alt_km": 459.9372217972832, "timestamp": "2025-12-22T11:33:20.086966+00:00", "meta": {"OBJECT_NAME": "SKYSAT-C10", "OBJECT_ID": "2017-068B", "EPOCH": "2025-12-21T20:57:04.412736", "MEAN_MOTION": 15.32243269, "ECCENTRICITY": 0.0005394, "INCLINATION": 97.4267, "RA_OF_ASC_NODE": 126.7502, "ARG_OF_PERICENTER": 78.7651, "MEAN_ANOMALY": 281.4197, "EPHEMERIS_TYPE": 0, "CLASSIFICATION_TYPE": "U", "NORAD_CAT_ID": 42988, "ELEMENT_SET_NO": 999, "REV_AT_EPOCH": 45519, "BSTAR": 0.00034194, "MEAN_MOTION_DOT": 0.00010574, "MEAN_MOTION_DDOT": 0}, "tle": {"line1": "1 42988U 17068B   25355.87296774  .00010574  00000+0  34194-3 0  9993", "line2": "2 42988  97.4267 126.7502 0005394  78.7651 281.4197 15.32243269455199"}}, "geometry": {"type": "Point", "coordinates": [-36.95358845251839, 64.24395993526709]}}, {"type": "Feature", "properties": {"norad_id": 42989, "name": "SKYSAT-C9", "group": "resource", "lat": 75.39929497365675, "lon": -23.168695547170543, "alt_km": 445.051592695585, "timestamp": "2025-12-22T11:33:20.086977+00:00", "meta": {"OBJECT_NAME": "SKYSAT-C9", "OBJECT_ID": "2017-068C", "EPOCH": "2025-12-21T19:28:44.749056", "MEAN_MOTION": 15.36261428, "ECCENTRICITY": 0.0010443, "INCLINATION": 97.4196, "RA_OF_ASC_NODE": 126.1381, "ARG_OF_PERICENTER": 58.73, "MEAN_ANOMALY": 301.4966, "EPHEMERIS_TYPE": 0, "CLASSIFICATION_TYPE": "U", "NORAD_CAT_ID": 42989, "ELEMENT_SET_NO": 999, "REV_AT_EPOCH": 45547, "BSTAR": 0.00031501, "MEAN_MOTION_DOT": 0.00011075, "MEAN_MOTION_DDOT": 0}, "tle": {"line1": "1 42989U 17068C   25355.81162904  .00011075  00000+0  31501-3 0  9991", "line2": "2 42989  97.4196 126.1381 0010443  58.7300 301.4966 15.36261428455479"}}, "geometry": {"type": "Point", "coordinates": [-23.168695547170543, 75.39929497365675]}}, {"type": "Feature", "properties": {"norad_id": 42990, "name": "SKYSAT-C8", "group": "resource", "lat": -36.55049564137904, "lon": 132.0763582596227, "alt_km": 472.31366179416, "timestamp": "2025-12-22T11:33:20.086987+00:00", "meta": {"OBJECT_NAME": "SKYSAT-C8", "OBJECT_ID": "2017-068D", "EPOCH": "2025-12-21T21:37:05.479104", "MEAN_MOTION": 15.33109138, "ECCENTRICITY": 0.0001039, "INCLINATION": 97.4289, "RA_OF_ASC_NODE": 125.9421, "ARG_OF_PERICENTER": 294.8108, "MEAN_ANOMALY": 65.3026, "EPHEMERIS_TYPE": 0, "CLASSIFICATION_TYPE": "U", "NORAD_CAT_ID": 42990, "ELEMENT_SET_NO": 999, "REV_AT_EPOCH": 45511, "BSTAR": 0.00035698, "MEAN_MOTION_DOT": 0.00011344, "MEAN_MOTION_DDOT": 0}, "tle": {"line1": "1 42990U 17068D   25355.90075786  .00011344  00000+0  35698-3 0  9994", "line2": "2 42990  97.4289 125.9421 0001039 294.8108  65.3026 15.33109138455116"}}, "geometry": {"type": "Point", "coordinates": [132.0763582596227, -36.55049564137904]}}, {"type": "Feature", "properties": {"norad_id": 42991, "name": "SKYSAT-C7", "group": "resource", "lat": 21.984640877835247, "lon": -49.42145473520963, "alt_km": 471.3793747009513, "timestamp": "2025-12-22T11:33:20.086997+00:00", "meta": {"OBJECT_NAME": "SKYSAT-C7", "OBJECT_ID": "2017-068E", "EPOCH": "2025-12-21T14:29:53.176416", "MEAN_MOTION": 15.32498854, "ECCENTRICITY": 0.0007098, "INCLINATION": 97.4298, "RA_OF_ASC_NODE": 126.6779, "ARG_OF_PERICENTER": 29.4906, "MEAN_ANOMALY": 330.6735, "EPHEMERIS_TYPE": 0, "CLASSIFICATION_TYPE": "U", "NORAD_CAT_ID": 42991, "ELEMENT_SET_NO": 999, "REV_AT_EPOCH": 45513, "BSTAR": 0.00028728, "MEAN_MOTION_DOT": 8.944e-05, "MEAN_MOTION_DDOT": 0}, "tle": {"line1": "1 42991U 17068E   25355.60408769  .00008944  00000+0  28728-3 0  9991", "line2": "2 42991  97.4298 126.6779 0007098  29.4906 330.6735 15.32498854455132"}}, "geometry": {"type": "Point", "coordinates": [-49.42145473520963, 21.984640877835247]}}, {"type": "Feature", "properties": {"norad_id": 42992, "name": "SKYSAT-C6", "group": "resource", "lat": -64.18230881717095, "lon": -67.66572548200212, "alt_km": 481.38036161918353, "timestamp": "2025-12-22T11:33:20.087007+00:00", "meta": {"OBJECT_NAME": "SKYSAT-C6", "OBJECT_ID": "2017-068F", "EPOCH": "2025-12-22T02:38:56.222016", "MEAN_MOTION": 15.31668599, "ECCENTRICITY": 0.000492, "INCLINATION": 97.4328, "RA_OF_ASC_NODE": 127.6172, "ARG_OF_PERICENTER": 57.51, "MEAN_ANOMALY": 302.6617, "EPHEMERIS_TYPE": 0, "CLASSIFICATION_TYPE": "U", "NORAD_CAT_ID": 42992, "ELEMENT_SET_NO": 999, "REV_AT_EPOCH": 45519, "BSTAR": 0.00036431, "MEAN_MOTION_DOT": 0.0001107, "MEAN_MOTION_DDOT": 0}, "tle": {"line1": "1 42992U 17068F   25356.11037294  .00011070  00000+0  36431-3 0  9994", "line2": "2 42992  97.4328 127.6172 0004920  57.5100 302.6617 15.31668599455192"}}, "geometry": {"type": "Point", "coordinates": [-67.66572548200212, -64.18230881717095]}}, {"type": "Feature", "properties": {"norad_id": 43111, "name": "CARTOSAT-2F", "group": "resource", "lat": -77.65269530417035, "lon": 90.560314764148, "alt_km": 516.5136774412713, "timestamp": "2025-12-22T11:33:20.087017+00:00", "meta": {"OBJECT_NAME": "CARTOSAT-2F", "OBJECT_ID": "2018-004A", "EPOCH": "2025-12-22T04:00:14.423040", "MEAN_MOTION": 15.1920929, "ECCENTRICITY": 0.0001399, "INCLINATION": 97.4306, "RA_OF_ASC_NODE": 53.6516, "ARG_OF_PERICENTER": 113.4394, "MEAN_ANOMALY": 246.6988, "EPHEMERIS_TYPE": 0, "CLASSIFICATION_TYPE": "U", "NORAD_CAT_ID": 43111, "ELEMENT_SET_NO": 999, "REV_AT_EPOCH": 44045, "BSTAR": 0.00025728, "MEAN_MOTION_DOT": 5.349e-05, "MEAN_MOTION_DDOT": 0}, "tle": {"line1": "1 43111U 18004A   25356.16683360  .00005349  00000+0  25728-3 0  9994", "line2": "2 43111  97.4306  53.6516 0001399 113.4394 246.6988 15.19209290440452"}}, "geometry": {"type": "Point", "coordinates": [90.560314764148, -77.65269530417035]}}, {"type": "Feature", "properties": {"norad_id": 43259, "name": "GAOFEN-1 02", "group": "resource", "lat": -13.134584933935177, "lon": 56.17390683917579, "alt_km": 646.8225829765306, "timestamp": "2025-12-22T11:33:20.087027+00:00", "meta": {"OBJECT_NAME": "GAOFEN-1 02", "OBJECT_ID": "2018-031A", "EPOCH": "2025-12-22T05:06:34.116768", "MEAN_MOTION": 14.76434112, "ECCENTRICITY": 0.0002441, "INCLINATION": 98.0797, "RA_OF_ASC_NODE": 54.0057, "ARG_OF_PERICENTER": 180.3622, "MEAN_ANOMALY": 179.7586, "EPHEMERIS_TYPE": 0, "CLASSIFICATION_TYPE": "U", "NORAD_CAT_ID": 43259, "ELEMENT_SET_NO": 999, "REV_AT_EPOCH": 41658, "BSTAR": 0.00015103, "MEAN_MOTION_DOT": 9.98e-06, "MEAN_MOTION_DDOT": 0}, "tle": {"line1": "1 43259U 18031A   25356.21289487  .00000998  00000+0  15103-3 0  9996", "line2": "2 43259  98.0797  54.0057 0002441 180.3622 179.7586 14.76434112416589"}}, "geometry": {"type": "Point", "coordinates": [56.17390683917579, -13.134584933935177]}}, {"type": "Feature", "properties": {"norad_id": 43260, "name": "GAOFEN-1 03", "group": "resource", "lat": 74.90175031270488, "lon": -94.08334593461555, "alt_km": 634.5744788905013, "timestamp": "2025-12-22T11:33:20.087038+00:00", "meta": {"OBJECT_NAME": "GAOFEN-1 03", "OBJECT_ID": "2018-031B", "EPOCH": "2025-12-22T04:35:08.555136", "MEAN_MOTION": 14.76455434, "ECCENTRICITY": 0.0001707, "INCLINATION": 98.0785, "RA_OF_ASC_NODE": 53.8594, "ARG_OF_PERICENTER": 271.9501, "MEAN_ANOMALY": 88.1513, "EPHEMERIS_TYPE": 0, "CLASSIFICATION_TYPE": "U", "NORAD_CAT_ID": 43260, "ELEMENT_SET_NO": 999, "REV_AT_EPOCH": 41657, "BSTAR": 0.00013169, "MEAN_MOTION_DOT": 8.64e-06, "MEAN_MOTION_DDOT": 0}, "tle": {"line1": "1 43260U 18031B   25356.19107124  .00000864  00000+0  13169-3 0  9994", "line2": "2 43260  98.0785  53.8594 0001707 271.9501  88.1513 14.76455434416570"}}, "geometry": {"type": "Point", "coordinates": [-94.08334593461555, 74.90175031270488]}}, {"type": "Feature", "properties": {"norad_id": 43262, "name": "GAOFEN-1 04", "group": "resource", "lat": -51.41110266891913, "lon": -135.93408398311, "alt_km": 648.033766211478, "timestamp": "2025-12-22T11:33:20.087048+00:00", "meta": {"OBJECT_NAME": "GAOFEN-1 04", "OBJECT_ID": "2018-031D", "EPOCH": "2025-12-22T04:00:05.584320", "MEAN_MOTION": 14.76422446, "ECCENTRICITY": 6.38e-05, "INCLINATION": 98.0799, "RA_OF_ASC_NODE": 54.0058, "ARG_OF_PERICENTER": 55.799, "MEAN_ANOMALY": 304.328, "EPHEMERIS_TYPE": 0, "CLASSIFICATION_TYPE": "U", "NORAD_CAT_ID": 43262, "ELEMENT_SET_NO": 999, "REV_AT_EPOCH": 41656, "BSTAR": 4.8165e-05, "MEAN_MOTION_DOT": 2.83e-06, "MEAN_MOTION_DDOT": 0}, "tle": {"line1": "1 43262U 18031D   25356.16673130  .00000283  00000+0  48165-4 0  9998", "line2": "2 43262  98.0799  54.0058 0000638  55.7990 304.3280 14.76422446416567"}}, "geometry": {"type": "Point", "coordinates": [-135.93408398311, -51.41110266891913]}}]}